[
  {
    "OBJECT_NAME": "CZ-6A DEB",
    "OBJECT_ID": "2022-151AAA",
    "EPOCH": "2026-07-20T06:26:18.590208",
    "MEAN_MOTION": 15.45846268,
    "ECCENTRICITY": 0.00166533,
    "INCLINATION": 98.6182,
    "RA_OF_ASC_NODE": 315.0842,
    "ARG_OF_PERICENTER": 42.5452,
    "MEAN_ANOMALY": 317.7081,
    "EPHEMERIS_TYPE": 0,
    "CLASSIFICATION_TYPE": "U",
    "NORAD_CAT_ID": 55878,
    "ELEMENT_SET_NO": 999,
    "REV_AT_EPOCH": 18545,
    "BSTAR": 0.0029619404,
    "MEAN_MOTION_DOT": 0.00146897,
    "MEAN_MOTION_DDOT": 0
  }
]
